[{"OBJECT_NAME":"NETSAT-1","OBJECT_ID":"2020-068W","EPOCH":"2026-03-09T22:42:38.711232","MEAN_MOTION":15.32042482,"ECCENTRICITY":0.00057337,"INCLINATION":97.8751,"RA_OF_ASC_NODE":63.2583,"ARG_OF_PERICENTER":18.5877,"MEAN_ANOMALY":341.5572,"EPHEMERIS_TYPE":0,"CLASSIFICATION_TYPE":"U","NORAD_CAT_ID":46506,"ELEMENT_SET_NO":999,"REV_AT_EPOCH":30009,"BSTAR":0.00059222329,"MEAN_MOTION_DOT":0.00018269,"MEAN_MOTION_DDOT":0},{"OBJECT_NAME":"STARLINK-35861","OBJECT_ID":"2025-254H","EPOCH":"2026-03-09T18:17:49.409088","MEAN_MOTION":15.30195905,"ECCENTRICITY":0.00010606,"INCLINATION":53.1583,"RA_OF_ASC_NODE":232.3413,"ARG_OF_PERICENTER":104.1985,"MEAN_ANOMALY":255.9133,"EPHEMERIS_TYPE":0,"CLASSIFICATION_TYPE":"U","NORAD_CAT_ID":66355,"ELEMENT_SET_NO":999,"REV_AT_EPOCH":1898,"BSTAR":0.00096962063,"MEAN_MOTION_DOT":0.00028465,"MEAN_MOTION_DDOT":0}]
